{
"type": "FeatureCollection",
"name": "tracks",
"features": [
{ "type": "Feature", "properties": { }, "geometry": { "type": "LineString", "coordinates": [ [ 35.021018, 31.809886 ], [ 35.021154, 31.809825 ], [ 35.02146, 31.809673 ], [ 35.021827, 31.809443 ], [ 35.022223, 31.809443 ], [ 35.022618, 31.809436 ], [ 35.022655, 31.809451 ], [ 35.022689, 31.809466 ], [ 35.022815, 31.809459 ], [ 35.023112, 31.809497 ], [ 35.023544, 31.80952 ], [ 35.023705, 31.809512 ], [ 35.023884, 31.809489 ], [ 35.02411, 31.809512 ], [ 35.024297, 31.809489 ], [ 35.024523, 31.809382 ], [ 35.024613, 31.809306 ], [ 35.024729, 31.80913 ], [ 35.024747, 31.809084 ], [ 35.024828, 31.809062 ], [ 35.024873, 31.809069 ], [ 35.0249, 31.809084 ], [ 35.024936, 31.809107 ], [ 35.025016, 31.809199 ], [ 35.025052, 31.80926 ], [ 35.025178, 31.809405 ], [ 35.025484, 31.809603 ], [ 35.025752, 31.809779 ], [ 35.025842, 31.809856 ], [ 35.025932, 31.809978 ], [ 35.025987, 31.810031 ], [ 35.026041, 31.810054 ], [ 35.026104, 31.810077 ], [ 35.026229, 31.810084 ], [ 35.026347, 31.810046 ], [ 35.026427, 31.809962 ], [ 35.026498, 31.809795 ], [ 35.026508, 31.809764 ], [ 35.026454, 31.809626 ], [ 35.0264, 31.809527 ], [ 35.02631, 31.80929 ], [ 35.026292, 31.809222 ], [ 35.026328, 31.809115 ], [ 35.026381, 31.809015 ], [ 35.026444, 31.80897 ], [ 35.026517, 31.808932 ], [ 35.026643, 31.808916 ], [ 35.026768, 31.808932 ], [ 35.027236, 31.809115 ], [ 35.027442, 31.809337 ], [ 35.027576, 31.809405 ], [ 35.027747, 31.809558 ], [ 35.027819, 31.809581 ], [ 35.0279, 31.80955 ], [ 35.027926, 31.809451 ], [ 35.028008, 31.809337 ], [ 35.028152, 31.809252 ], [ 35.028268, 31.809031 ], [ 35.028242, 31.808726 ], [ 35.028232, 31.808604 ], [ 35.028179, 31.808458 ], [ 35.028079, 31.808344 ], [ 35.027989, 31.808214 ], [ 35.027926, 31.808092 ], [ 35.0279, 31.807977 ], [ 35.027936, 31.807878 ], [ 35.028169, 31.807596 ], [ 35.028278, 31.807573 ], [ 35.028368, 31.807634 ], [ 35.028439, 31.807764 ], [ 35.028521, 31.807817 ], [ 35.028592, 31.807779 ], [ 35.028601, 31.807672 ], [ 35.028637, 31.807603 ], [ 35.028637, 31.807519 ], [ 35.028601, 31.807466 ], [ 35.028582, 31.807405 ], [ 35.028727, 31.807031 ], [ 35.028744, 31.806817 ], [ 35.028897, 31.80655 ], [ 35.029014, 31.806489 ], [ 35.029095, 31.806443 ], [ 35.02914, 31.806367 ], [ 35.029176, 31.806267 ], [ 35.02923, 31.806176 ], [ 35.029301, 31.806038 ], [ 35.029364, 31.805985 ], [ 35.029463, 31.805939 ], [ 35.029616, 31.805871 ], [ 35.02967, 31.805801 ], [ 35.029714, 31.805726 ], [ 35.029714, 31.80558 ], [ 35.029733, 31.805443 ], [ 35.029993, 31.804901 ], [ 35.029993, 31.804901 ], [ 35.030002, 31.804878 ], [ 35.03002, 31.804779 ], [ 35.030029, 31.804695 ], [ 35.03011, 31.804458 ], [ 35.03019, 31.804328 ], [ 35.030272, 31.804122 ], [ 35.03037, 31.804008 ], [ 35.030469, 31.803939 ], [ 35.030865, 31.803817 ], [ 35.031179, 31.803634 ], [ 35.031251, 31.803542 ], [ 35.03126, 31.803473 ], [ 35.031305, 31.803374 ], [ 35.031439, 31.803237 ], [ 35.031467, 31.803099 ], [ 35.031502, 31.803023 ], [ 35.031628, 31.80297 ], [ 35.031754, 31.802984 ], [ 35.031916, 31.803015 ], [ 35.031987, 31.803084 ], [ 35.03214, 31.80313 ], [ 35.032266, 31.80313 ], [ 35.032347, 31.803145 ], [ 35.0324, 31.803153 ], [ 35.032571, 31.80313 ], [ 35.032661, 31.803122 ], [ 35.03275, 31.803137 ], [ 35.032876, 31.803145 ], [ 35.033029, 31.803137 ], [ 35.03311, 31.803145 ], [ 35.033245, 31.80313 ], [ 35.033326, 31.803191 ], [ 35.033389, 31.803267 ], [ 35.033542, 31.803298 ], [ 35.033668, 31.80329 ], [ 35.033775, 31.803367 ], [ 35.033928, 31.803496 ], [ 35.034125, 31.803565 ], [ 35.034215, 31.803672 ], [ 35.034387, 31.803649 ], [ 35.034566, 31.803557 ], [ 35.03462, 31.803466 ], [ 35.034773, 31.803389 ], [ 35.034997, 31.803168 ], [ 35.035104, 31.80316 ], [ 35.035276, 31.803038 ], [ 35.035437, 31.802923 ], [ 35.0355, 31.802893 ], [ 35.035526, 31.802878 ], [ 35.035572, 31.802862 ], [ 35.035572, 31.802794 ], [ 35.035616, 31.802702 ], [ 35.035698, 31.802649 ], [ 35.035905, 31.80258 ], [ 35.036263, 31.802404 ], [ 35.036551, 31.802252 ], [ 35.036947, 31.802114 ], [ 35.037063, 31.802084 ], [ 35.037395, 31.802061 ], [ 35.037547, 31.802023 ], [ 35.037754, 31.801916 ], [ 35.037979, 31.801855 ], [ 35.038069, 31.801863 ], [ 35.038402, 31.801924 ], [ 35.038482, 31.801939 ], [ 35.038581, 31.801946 ], [ 35.038635, 31.801916 ], [ 35.038662, 31.801877 ], [ 35.038653, 31.80184 ], [ 35.038473, 31.801664 ], [ 35.038366, 31.801458 ], [ 35.038285, 31.801328 ], [ 35.038266, 31.801221 ], [ 35.038293, 31.801114 ], [ 35.038339, 31.801061 ], [ 35.038446, 31.801 ], [ 35.038698, 31.800939 ], [ 35.038769, 31.800961 ], [ 35.038886, 31.800946 ], [ 35.038968, 31.8009 ], [ 35.039048, 31.800725 ], [ 35.039138, 31.800603 ], [ 35.039237, 31.800511 ], [ 35.039417, 31.80042 ], [ 35.039507, 31.800412 ], [ 35.039534, 31.800427 ], [ 35.039578, 31.800634 ], [ 35.039658, 31.800656 ], [ 35.039704, 31.800656 ], [ 35.039767, 31.80061 ], [ 35.039874, 31.800465 ], [ 35.039937, 31.800366 ], [ 35.039983, 31.800312 ], [ 35.040063, 31.800312 ], [ 35.040189, 31.800412 ], [ 35.040314, 31.800427 ], [ 35.040863, 31.800373 ], [ 35.041195, 31.800389 ], [ 35.041438, 31.80032 ], [ 35.041528, 31.800312 ], [ 35.041635, 31.800359 ], [ 35.041716, 31.800442 ], [ 35.041779, 31.80061 ], [ 35.041842, 31.800702 ], [ 35.041878, 31.800725 ], [ 35.041958, 31.800748 ], [ 35.04204, 31.800733 ], [ 35.042237, 31.800656 ], [ 35.042461, 31.800488 ], [ 35.042614, 31.80032 ], [ 35.042687, 31.800282 ], [ 35.042767, 31.800259 ], [ 35.042893, 31.800251 ], [ 35.04336, 31.800274 ], [ 35.043558, 31.800328 ], [ 35.043935, 31.800481 ], [ 35.044069, 31.800473 ], [ 35.044115, 31.800404 ], [ 35.044159, 31.800251 ], [ 35.044258, 31.800045 ], [ 35.044482, 31.799877 ], [ 35.044528, 31.799816 ], [ 35.044645, 31.799587 ], [ 35.044771, 31.799442 ], [ 35.044834, 31.799304 ], [ 35.044851, 31.799198 ], [ 35.044941, 31.798961 ], [ 35.045004, 31.798832 ], [ 35.045148, 31.79861 ], [ 35.045174, 31.798541 ], [ 35.045247, 31.79845 ], [ 35.045363, 31.798366 ], [ 35.0454, 31.798327 ], [ 35.045956, 31.797564 ], [ 35.04609, 31.797427 ], [ 35.04618, 31.79735 ], [ 35.046298, 31.797289 ], [ 35.046746, 31.797228 ], [ 35.046828, 31.797198 ], [ 35.046872, 31.797106 ], [ 35.046809, 31.796862 ], [ 35.046809, 31.796823 ], [ 35.046845, 31.796762 ], [ 35.046971, 31.796732 ], [ 35.047132, 31.796762 ], [ 35.047169, 31.796747 ], [ 35.047321, 31.796625 ], [ 35.047457, 31.796533 ], [ 35.047528, 31.79651 ], [ 35.047582, 31.796518 ], [ 35.047798, 31.796632 ], [ 35.047834, 31.796693 ], [ 35.047843, 31.796801 ], [ 35.047861, 31.796831 ], [ 35.047897, 31.796846 ], [ 35.047941, 31.796839 ], [ 35.047996, 31.796785 ], [ 35.048077, 31.796618 ], [ 35.048157, 31.796533 ], [ 35.048499, 31.796327 ], [ 35.048813, 31.796213 ], [ 35.049216, 31.795885 ], [ 35.049128, 31.795777 ], [ 35.049002, 31.795671 ], [ 35.048929, 31.79564 ], [ 35.048606, 31.795556 ], [ 35.048337, 31.795457 ], [ 35.048148, 31.795365 ], [ 35.04805, 31.795297 ], [ 35.047968, 31.795213 ], [ 35.04795, 31.795144 ], [ 35.047941, 31.794709 ], [ 35.047878, 31.794426 ], [ 35.047851, 31.794365 ], [ 35.047788, 31.794312 ], [ 35.0476, 31.794228 ], [ 35.047375, 31.794059 ], [ 35.046989, 31.793838 ], [ 35.046872, 31.793754 ], [ 35.046935, 31.793693 ], [ 35.046998, 31.793609 ], [ 35.047187, 31.793518 ], [ 35.047321, 31.793525 ], [ 35.047331, 31.793479 ], [ 35.047501, 31.793502 ], [ 35.047637, 31.793479 ], [ 35.047851, 31.793296 ], [ 35.047753, 31.793135 ], [ 35.047788, 31.792937 ], [ 35.047582, 31.792677 ], [ 35.047555, 31.792487 ], [ 35.047735, 31.792273 ], [ 35.047555, 31.792487 ], [ 35.047016, 31.792479 ], [ 35.046153, 31.79238 ], [ 35.045327, 31.792258 ], [ 35.044958, 31.792219 ], [ 35.045048, 31.791853 ], [ 35.045013, 31.791769 ], [ 35.044897, 31.79167 ], [ 35.044662, 31.791555 ], [ 35.044582, 31.791479 ], [ 35.044482, 31.791166 ], [ 35.044429, 31.791074 ], [ 35.044304, 31.790975 ], [ 35.043935, 31.790571 ], [ 35.043855, 31.790471 ], [ 35.043872, 31.790395 ], [ 35.043971, 31.790272 ], [ 35.043979, 31.790196 ], [ 35.044025, 31.78999 ], [ 35.044052, 31.789868 ], [ 35.044025, 31.789799 ], [ 35.043962, 31.789753 ], [ 35.043792, 31.789738 ], [ 35.04371, 31.78973 ], [ 35.043593, 31.789638 ], [ 35.043261, 31.789501 ], [ 35.043117, 31.789379 ], [ 35.042903, 31.788989 ], [ 35.042767, 31.788646 ], [ 35.042687, 31.788509 ], [ 35.042668, 31.788486 ], [ 35.04239, 31.788127 ], [ 35.0423, 31.788051 ], [ 35.042165, 31.787959 ], [ 35.042021, 31.787882 ], [ 35.041779, 31.787814 ], [ 35.04106, 31.78776 ], [ 35.039928, 31.787577 ], [ 35.039687, 31.787508 ], [ 35.039371, 31.787393 ], [ 35.039165, 31.787279 ], [ 35.038492, 31.78673 ], [ 35.038329, 31.786554 ], [ 35.037989, 31.786081 ], [ 35.037602, 31.78547 ], [ 35.037458, 31.785134 ], [ 35.037368, 31.784828 ], [ 35.037333, 31.784546 ], [ 35.037368, 31.783836 ], [ 35.03735, 31.783721 ], [ 35.037297, 31.783606 ], [ 35.037207, 31.783431 ], [ 35.036767, 31.782911 ], [ 35.036658, 31.782858 ], [ 35.036578, 31.782835 ], [ 35.036398, 31.782881 ], [ 35.036398, 31.782873 ], [ 35.036362, 31.782873 ], [ 35.036299, 31.78285 ], [ 35.036299, 31.782797 ], [ 35.036263, 31.782774 ], [ 35.036111, 31.782736 ], [ 35.036066, 31.782698 ], [ 35.036129, 31.782675 ], [ 35.036182, 31.782621 ], [ 35.036209, 31.782568 ], [ 35.036129, 31.78253 ], [ 35.036111, 31.782476 ], [ 35.036155, 31.782369 ], [ 35.036155, 31.782308 ], [ 35.036092, 31.782323 ], [ 35.035679, 31.782323 ], [ 35.035572, 31.782384 ], [ 35.035509, 31.782362 ], [ 35.035482, 31.782285 ], [ 35.035482, 31.782232 ], [ 35.035572, 31.782148 ], [ 35.035635, 31.78214 ], [ 35.035679, 31.78211 ], [ 35.035482, 31.78211 ], [ 35.035509, 31.782041 ], [ 35.035635, 31.781972 ], [ 35.035742, 31.781888 ], [ 35.035805, 31.781911 ], [ 35.035859, 31.781896 ], [ 35.035905, 31.78185 ], [ 35.036039, 31.78182 ], [ 35.036218, 31.781735 ], [ 35.036299, 31.781713 ], [ 35.036362, 31.78172 ], [ 35.036425, 31.781713 ], [ 35.036497, 31.78169 ], [ 35.036668, 31.781583 ], [ 35.036704, 31.781529 ], [ 35.036767, 31.781499 ], [ 35.036677, 31.781415 ], [ 35.036641, 31.781361 ], [ 35.036587, 31.781323 ], [ 35.036515, 31.781323 ], [ 35.036461, 31.781293 ], [ 35.036326, 31.781293 ], [ 35.036192, 31.781323 ], [ 35.036119, 31.781316 ], [ 35.035994, 31.781354 ], [ 35.035859, 31.781377 ], [ 35.035725, 31.781415 ], [ 35.035662, 31.781453 ], [ 35.035599, 31.78146 ], [ 35.035463, 31.781446 ], [ 35.035463, 31.781392 ], [ 35.035518, 31.781331 ], [ 35.03558, 31.781208 ], [ 35.035635, 31.781163 ], [ 35.035626, 31.781094 ], [ 35.035823, 31.780941 ], [ 35.035868, 31.780888 ], [ 35.035895, 31.780827 ], [ 35.035832, 31.780811 ], [ 35.035805, 31.780766 ], [ 35.035698, 31.780705 ], [ 35.035563, 31.780743 ], [ 35.0355, 31.780728 ], [ 35.035437, 31.780728 ], [ 35.035366, 31.780735 ], [ 35.035293, 31.780728 ], [ 35.035159, 31.780758 ], [ 35.035024, 31.780621 ], [ 35.03497, 31.78059 ], [ 35.0347, 31.780491 ], [ 35.034593, 31.780399 ], [ 35.034278, 31.780231 ], [ 35.034278, 31.78017 ], [ 35.034224, 31.780048 ], [ 35.034161, 31.779941 ], [ 35.03409, 31.779873 ], [ 35.033955, 31.779857 ], [ 35.033901, 31.779758 ], [ 35.033892, 31.779529 ], [ 35.033882, 31.779368 ], [ 35.033821, 31.779269 ], [ 35.033775, 31.779223 ], [ 35.033748, 31.77917 ], [ 35.033703, 31.779132 ], [ 35.033649, 31.779101 ], [ 35.033578, 31.779086 ], [ 35.033406, 31.779002 ], [ 35.033362, 31.778956 ], [ 35.033299, 31.778925 ], [ 35.033263, 31.778879 ], [ 35.033129, 31.778826 ], [ 35.033039, 31.77875 ], [ 35.03293, 31.778688 ], [ 35.032832, 31.778605 ], [ 35.032769, 31.778566 ], [ 35.032706, 31.778551 ], [ 35.032626, 31.778467 ], [ 35.032607, 31.778413 ], [ 35.032553, 31.778375 ], [ 35.032517, 31.778322 ], [ 35.032454, 31.778299 ], [ 35.032427, 31.77823 ], [ 35.032364, 31.778208 ], [ 35.032347, 31.778139 ], [ 35.032293, 31.7781 ], [ 35.032257, 31.778047 ], [ 35.032194, 31.778016 ], [ 35.032184, 31.777963 ], [ 35.03215, 31.777902 ], [ 35.03205, 31.777879 ], [ 35.032014, 31.777841 ], [ 35.031934, 31.777665 ], [ 35.031745, 31.777459 ], [ 35.031341, 31.777536 ], [ 35.030928, 31.777642 ], [ 35.030846, 31.777604 ], [ 35.030972, 31.777459 ], [ 35.031161, 31.777322 ], [ 35.03135, 31.777238 ], [ 35.031547, 31.777176 ], [ 35.03188, 31.777024 ], [ 35.032041, 31.776833 ], [ 35.032184, 31.776543 ], [ 35.032266, 31.776421 ], [ 35.032302, 31.776321 ], [ 35.032284, 31.776276 ], [ 35.032213, 31.776252 ], [ 35.032176, 31.77626 ], [ 35.032104, 31.776283 ], [ 35.032033, 31.776276 ], [ 35.032005, 31.776222 ], [ 35.032041, 31.776161 ], [ 35.032176, 31.776031 ], [ 35.03232, 31.77581 ], [ 35.0324, 31.775627 ], [ 35.0325, 31.775352 ], [ 35.0325, 31.77529 ], [ 35.032463, 31.775267 ], [ 35.0324, 31.775305 ], [ 35.032302, 31.775474 ], [ 35.032167, 31.775619 ], [ 35.032087, 31.775649 ], [ 35.03206, 31.775641 ], [ 35.032033, 31.775596 ], [ 35.032176, 31.775283 ], [ 35.03231, 31.774916 ], [ 35.032392, 31.774786 ], [ 35.032463, 31.774725 ], [ 35.0325, 31.774695 ], [ 35.03275, 31.774595 ], [ 35.033289, 31.774473 ], [ 35.033532, 31.774435 ], [ 35.033721, 31.774435 ], [ 35.033821, 31.774458 ], [ 35.033892, 31.774496 ], [ 35.033937, 31.77455 ], [ 35.033937, 31.774611 ], [ 35.033855, 31.774687 ], [ 35.033586, 31.774825 ], [ 35.033505, 31.774893 ], [ 35.033353, 31.775084 ], [ 35.033226, 31.775305 ], [ 35.033353, 31.775749 ], [ 35.033532, 31.776046 ], [ 35.033721, 31.776581 ], [ 35.033855, 31.77681 ], [ 35.033964, 31.776925 ], [ 35.034027, 31.77697 ], [ 35.034134, 31.777009 ], [ 35.034997, 31.777139 ], [ 35.035239, 31.777176 ], [ 35.035626, 31.777276 ], [ 35.035796, 31.777345 ], [ 35.035895, 31.777398 ], [ 35.036263, 31.777703 ], [ 35.036381, 31.77778 ], [ 35.036685, 31.777933 ], [ 35.036901, 31.778016 ], [ 35.03736, 31.778154 ], [ 35.038087, 31.778467 ], [ 35.038635, 31.778605 ], [ 35.03956, 31.778879 ], [ 35.039731, 31.77894 ], [ 35.039866, 31.779017 ], [ 35.03992, 31.779078 ], [ 35.040027, 31.77933 ], [ 35.0401, 31.779422 ], [ 35.040413, 31.779666 ], [ 35.040494, 31.77975 ], [ 35.04054, 31.779826 ], [ 35.04062, 31.780132 ], [ 35.040692, 31.780254 ], [ 35.040872, 31.780453 ], [ 35.041033, 31.780689 ], [ 35.041195, 31.78101 ], [ 35.041329, 31.781354 ], [ 35.041366, 31.781407 ], [ 35.041482, 31.781483 ], [ 35.04186, 31.781659 ], [ 35.041932, 31.781751 ], [ 35.042094, 31.782171 ], [ 35.042165, 31.78224 ], [ 35.042219, 31.782278 ], [ 35.042337, 31.782316 ], [ 35.04248, 31.782339 ], [ 35.043289, 31.782369 ], [ 35.043863, 31.782445 ], [ 35.043979, 31.782469 ], [ 35.044591, 31.782682 ], [ 35.045166, 31.782858 ], [ 35.045354, 31.782896 ], [ 35.045543, 31.782881 ], [ 35.045956, 31.782789 ], [ 35.046513, 31.78269 ], [ 35.047358, 31.782606 ], [ 35.047887, 31.782591 ], [ 35.048346, 31.782652 ], [ 35.048866, 31.782759 ], [ 35.049738, 31.783034 ], [ 35.050071, 31.78311 ], [ 35.050853, 31.783117 ], [ 35.051373, 31.78308 ], [ 35.051795, 31.78308 ], [ 35.052622, 31.783042 ], [ 35.052972, 31.783042 ], [ 35.053098, 31.783034 ], [ 35.053314, 31.782988 ], [ 35.053547, 31.782911 ], [ 35.054095, 31.782675 ], [ 35.054229, 31.782637 ], [ 35.054841, 31.782492 ], [ 35.055065, 31.782384 ], [ 35.055155, 31.782301 ], [ 35.055227, 31.782209 ], [ 35.055308, 31.782033 ], [ 35.055361, 31.781873 ], [ 35.055371, 31.781751 ], [ 35.055281, 31.781094 ], [ 35.055272, 31.780682 ], [ 35.055254, 31.780369 ], [ 35.055281, 31.780277 ], [ 35.055164, 31.780185 ], [ 35.055038, 31.780162 ], [ 35.055048, 31.779941 ], [ 35.055137, 31.779911 ], [ 35.055209, 31.779842 ] ] }
, "properties": {"color": "#FFAC1C", "description": "11 km - Shaar HaGai to Kessalon", "link": "/2026/05/shaar-hagai-to-kessalon.html"}}
]
}
